{"type": "FeatureCollection", "features": [ {"type": "Feature", "properties": {"norad_id": 66604, "name": "STARLINK-35977", "group": "last-30-days", "lat": 6.951334626986062, "lon": -43.70556153815547, "alt_km": 443.22705347904866, "timestamp": "2025-12-21T03:56:49.614399+00:00", "meta": {"OBJECT_NAME": "STARLINK-35977", "OBJECT_ID": "2025-270S", "EPOCH": "2025-12-20T20:00:01.999008", "MEAN_MOTION": 15.40664645, "ECCENTRICITY": 0.0002027, "INCLINATION": 43.0002, "RA_OF_ASC_NODE": 145.7209, "ARG_OF_PERICENTER": 274.9644, "MEAN_ANOMALY": 216.0875, "EPHEMERIS_TYPE": 0, "CLASSIFICATION_TYPE": "U", "NORAD_CAT_ID": 66604, "ELEMENT_SET_NO": 999, "REV_AT_EPOCH": 570, "BSTAR": 0.0019103, "MEAN_MOTION_DOT": 0.00080246, "MEAN_MOTION_DDOT": 0}, "tle": {"line1": "1 66604U 25270S   25354.83335647  .00080246  00000+0  19103-2 0  9991", "line2": "2 66604  43.0002 145.7209 0002027 274.9644 216.0875 15.40664645  5700"}}, "geometry": {"type": "Point", "coordinates": [-43.70556153815547, 6.951334626986062]}}, {"type": "Feature", "properties": {"norad_id": 66605, "name": "STARLINK-36052", "group": "last-30-days", "lat": -37.88720946286891, "lon": 20.248583524256283, "alt_km": 446.04177074244217, "timestamp": "2025-12-21T03:56:49.614408+00:00", "meta": {"OBJECT_NAME": "STARLINK-36052", "OBJECT_ID": "2025-270T", "EPOCH": "2025-12-20T20:00:01.999008", "MEAN_MOTION": 15.40659977, "ECCENTRICITY": 0.0002218, "INCLINATION": 43.0001, "RA_OF_ASC_NODE": 145.539, "ARG_OF_PERICENTER": 284.0218, "MEAN_ANOMALY": 281.5634, "EPHEMERIS_TYPE": 0, "CLASSIFICATION_TYPE": "U", "NORAD_CAT_ID": 66605, "ELEMENT_SET_NO": 999, "REV_AT_EPOCH": 570, "BSTAR": 0.0018536, "MEAN_MOTION_DOT": 0.0007782, "MEAN_MOTION_DDOT": 0}, "tle": {"line1": "1 66605U 25270T   25354.83335647  .00077820  00000+0  18536-2 0  9995", "line2": "2 66605  43.0001 145.5390 0002218 284.0218 281.5634 15.40659977  5702"}}, "geometry": {"type": "Point", "coordinates": [20.248583524256283, -37.88720946286891]}}, {"type": "Feature", "properties": {"norad_id": 66606, "name": "STARLINK-36063", "group": "last-30-days", "lat": -7.791149750421707, "lon": 134.9275890024271, "alt_km": 414.36850671389584, "timestamp": "2025-12-21T03:56:49.614418+00:00", "meta": {"OBJECT_NAME": "STARLINK-36063", "OBJECT_ID": "2025-270U", "EPOCH": "2025-12-19T11:48:20.511648", "MEAN_MOTION": 15.50662232, "ECCENTRICITY": 0.0001816, "INCLINATION": 42.9987, "RA_OF_ASC_NODE": 153.1595, "ARG_OF_PERICENTER": 282.0515, "MEAN_ANOMALY": 78.0141, "EPHEMERIS_TYPE": 0, "CLASSIFICATION_TYPE": "U", "NORAD_CAT_ID": 66606, "ELEMENT_SET_NO": 999, "REV_AT_EPOCH": 539, "BSTAR": 0.00079676, "MEAN_MOTION_DOT": 0.0004682, "MEAN_MOTION_DDOT": 0}, "tle": {"line1": "1 66606U 25270U   25353.49190407  .00046820  00000+0  79676-3 0  9999", "line2": "2 66606  42.9987 153.1595 0001816 282.0515  78.0141 15.50662232  5393"}}, "geometry": {"type": "Point", "coordinates": [134.9275890024271, -7.791149750421707]}}, {"type": "Feature", "properties": {"norad_id": 66607, "name": "STARLINK-35993", "group": "last-30-days", "lat": -41.562072615784714, "lon": 35.6835982742805, "alt_km": 446.1979527204503, "timestamp": "2025-12-21T03:56:49.614427+00:00", "meta": {"OBJECT_NAME": "STARLINK-35993", "OBJECT_ID": "2025-270V", "EPOCH": "2025-12-20T20:00:01.999008", "MEAN_MOTION": 15.4065663, "ECCENTRICITY": 0.0001808, "INCLINATION": 42.9999, "RA_OF_ASC_NODE": 145.5091, "ARG_OF_PERICENTER": 275.3427, "MEAN_ANOMALY": 302.6859, "EPHEMERIS_TYPE": 0, "CLASSIFICATION_TYPE": "U", "NORAD_CAT_ID": 66607, "ELEMENT_SET_NO": 999, "REV_AT_EPOCH": 560, "BSTAR": 0.0017685, "MEAN_MOTION_DOT": 0.00074187, "MEAN_MOTION_DDOT": 0}, "tle": {"line1": "1 66607U 25270V   25354.83335647  .00074187  00000+0  17685-2 0  9994", "line2": "2 66607  42.9999 145.5091 0001808 275.3427 302.6859 15.40656630  5601"}}, "geometry": {"type": "Point", "coordinates": [35.6835982742805, -41.562072615784714]}}, {"type": "Feature", "properties": {"norad_id": 66608, "name": "STARLINK-36036", "group": "last-30-days", "lat": -6.6985701955073145, "lon": 136.12574781121543, "alt_km": 414.63451153557344, "timestamp": "2025-12-21T03:56:49.614436+00:00", "meta": {"OBJECT_NAME": "STARLINK-36036", "OBJECT_ID": "2025-270W", "EPOCH": "2025-12-19T11:47:53.026080", "MEAN_MOTION": 15.50612484, "ECCENTRICITY": 0.0001538, "INCLINATION": 42.999, "RA_OF_ASC_NODE": 153.1562, "ARG_OF_PERICENTER": 266.4602, "MEAN_ANOMALY": 93.6082, "EPHEMERIS_TYPE": 0, "CLASSIFICATION_TYPE": "U", "NORAD_CAT_ID": 66608, "ELEMENT_SET_NO": 999, "REV_AT_EPOCH": 523, "BSTAR": 0.0010303, "MEAN_MOTION_DOT": 0.00060643, "MEAN_MOTION_DDOT": 0}, "tle": {"line1": "1 66608U 25270W   25353.49158595  .00060643  00000+0  10303-2 0  9993", "line2": "2 66608  42.9990 153.1562 0001538 266.4602  93.6082 15.50612484  5231"}}, "geometry": {"type": "Point", "coordinates": [136.12574781121543, -6.6985701955073145]}}, {"type": "Feature", "properties": {"norad_id": 66609, "name": "STARLINK-36034", "group": "last-30-days", "lat": -6.297506526097578, "lon": 136.56593776337496, "alt_km": 418.68721515325706, "timestamp": "2025-12-21T03:56:49.614445+00:00", "meta": {"OBJECT_NAME": "STARLINK-36034", "OBJECT_ID": "2025-270X", "EPOCH": "2025-12-20T17:09:50.095296", "MEAN_MOTION": 15.50362019, "ECCENTRICITY": 0.0004855, "INCLINATION": 42.9992, "RA_OF_ASC_NODE": 145.9955, "ARG_OF_PERICENTER": 131.0652, "MEAN_ANOMALY": 229.0628, "EPHEMERIS_TYPE": 0, "CLASSIFICATION_TYPE": "U", "NORAD_CAT_ID": 66609, "ELEMENT_SET_NO": 999, "REV_AT_EPOCH": 542, "BSTAR": 0.0011128, "MEAN_MOTION_DOT": 0.00065002, "MEAN_MOTION_DDOT": 0}, "tle": {"line1": "1 66609U 25270X   25354.71516314  .00065002  00000+0  11128-2 0  9997", "line2": "2 66609  42.9992 145.9955 0004855 131.0652 229.0628 15.50362019  5424"}}, "geometry": {"type": "Point", "coordinates": [136.56593776337496, -6.297506526097578]}}, {"type": "Feature", "properties": {"norad_id": 66610, "name": "STARLINK-35680", "group": "last-30-days", "lat": -41.90392395926663, "lon": 69.17161843420293, "alt_km": 445.98051849956573, "timestamp": "2025-12-21T03:56:49.614455+00:00", "meta": {"OBJECT_NAME": "STARLINK-35680", "OBJECT_ID": "2025-270Y", "EPOCH": "2025-12-20T20:00:01.999008", "MEAN_MOTION": 15.4064541, "ECCENTRICITY": 0.0002121, "INCLINATION": 42.9997, "RA_OF_ASC_NODE": 145.4469, "ARG_OF_PERICENTER": 290.813, "MEAN_ANOMALY": 312.1441, "EPHEMERIS_TYPE": 0, "CLASSIFICATION_TYPE": "U", "NORAD_CAT_ID": 66610, "ELEMENT_SET_NO": 999, "REV_AT_EPOCH": 580, "BSTAR": 0.0017606, "MEAN_MOTION_DOT": 0.00073824, "MEAN_MOTION_DDOT": 0}, "tle": {"line1": "1 66610U 25270Y   25354.83335647  .00073824  00000+0  17606-2 0  9998", "line2": "2 66610  42.9997 145.4469 0002121 290.8130 312.1441 15.40645410  5802"}}, "geometry": {"type": "Point", "coordinates": [69.17161843420293, -41.90392395926663]}}, {"type": "Feature", "properties": {"norad_id": 66611, "name": "STARLINK-35583", "group": "last-30-days", "lat": -33.228529748996, "lon": 98.81093040162408, "alt_km": 445.8219058605009, "timestamp": "2025-12-21T03:56:49.614464+00:00", "meta": {"OBJECT_NAME": "STARLINK-35583", "OBJECT_ID": "2025-270Z", "EPOCH": "2025-12-20T20:00:01.999008", "MEAN_MOTION": 15.40639267, "ECCENTRICITY": 0.0001709, "INCLINATION": 42.9998, "RA_OF_ASC_NODE": 145.3879, "ARG_OF_PERICENTER": 294.9022, "MEAN_ANOMALY": 333.0216, "EPHEMERIS_TYPE": 0, "CLASSIFICATION_TYPE": "U", "NORAD_CAT_ID": 66611, "ELEMENT_SET_NO": 999, "REV_AT_EPOCH": 580, "BSTAR": 0.0019981, "MEAN_MOTION_DOT": 0.00083915, "MEAN_MOTION_DDOT": 0}, "tle": {"line1": "1 66611U 25270Z   25354.83335647  .00083915  00000+0  19981-2 0  9999", "line2": "2 66611  42.9998 145.3879 0001709 294.9022 333.0216 15.40639267  5809"}}, "geometry": {"type": "Point", "coordinates": [98.81093040162408, -33.228529748996]}}, {"type": "Feature", "properties": {"norad_id": 66612, "name": "STARLINK-36039", "group": "last-30-days", "lat": 35.26310572122798, "lon": -166.56805655912854, "alt_km": 439.2999520936146, "timestamp": "2025-12-21T03:56:49.614474+00:00", "meta": {"OBJECT_NAME": "STARLINK-36039", "OBJECT_ID": "2025-270AA", "EPOCH": "2025-12-20T10:34:58.712448", "MEAN_MOTION": 15.40726185, "ECCENTRICITY": 0.00016577, "INCLINATION": 43.0005, "RA_OF_ASC_NODE": 148.2468, "ARG_OF_PERICENTER": 221.4551, "MEAN_ANOMALY": 138.618, "EPHEMERIS_TYPE": 0, "CLASSIFICATION_TYPE": "U", "NORAD_CAT_ID": 66612, "ELEMENT_SET_NO": 999, "REV_AT_EPOCH": 553, "BSTAR": 0.00084609538, "MEAN_MOTION_DOT": 0.00035234, "MEAN_MOTION_DDOT": 0}, "tle": {"line1": "1 66612U 25270AA  25354.44095732  .00035234  00000+0  84610-3 0  9998", "line2": "2 66612  43.0005 148.2468 0001657 221.4551 138.6180 15.40726185  5536"}}, "geometry": {"type": "Point", "coordinates": [-166.56805655912854, 35.26310572122798]}}, {"type": "Feature", "properties": {"norad_id": 66613, "name": "STARLINK-36037", "group": "last-30-days", "lat": 42.54329650030002, "lon": -135.96267103418808, "alt_km": 437.7163618868235, "timestamp": "2025-12-21T03:56:49.614483+00:00", "meta": {"OBJECT_NAME": "STARLINK-36037", "OBJECT_ID": "2025-270AB", "EPOCH": "2025-12-20T19:48:38.925792", "MEAN_MOTION": 15.40706615, "ECCENTRICITY": 0.0001, "INCLINATION": 42.999, "RA_OF_ASC_NODE": 145.9711, "ARG_OF_PERICENTER": 224.1294, "MEAN_ANOMALY": 135.9482, "EPHEMERIS_TYPE": 0, "CLASSIFICATION_TYPE": "U", "NORAD_CAT_ID": 66613, "ELEMENT_SET_NO": 999, "REV_AT_EPOCH": 559, "BSTAR": 0.001205, "MEAN_MOTION_DOT": 0.00050376, "MEAN_MOTION_DDOT": 0}, "tle": {"line1": "1 66613U 25270AB  25354.82545053  .00050376  00000+0  12050-2 0  9999", "line2": "2 66613  42.9990 145.9711 0001000 224.1294 135.9482 15.40706615  5596"}}, "geometry": {"type": "Point", "coordinates": [-135.96267103418808, 42.54329650030002]}}]}